ONEWEB-0230             
1 48769U 21045C   25301.49413038 -.00000108  00000+0 -32116-3 0  9995
2 48769  87.8960 305.4521 0001693  91.8917 268.2408 13.15548879214208
ONEWEB-0237             
1 48770U 21045D   25301.48303894  .00000038  00000+0  65911-4 0  9994
2 48770  87.8964 305.4528 0001919 100.6154 259.5193 13.15549293213927
ONEWEB-0235             
1 48771U 21045E   25301.45768438  .00000169  00000+0  41447-3 0  9993
2 48771  87.8958 305.4288 0002090 104.2002 255.9361 13.15549488213919
ONEWEB-0242             
1 48772U 21045F   25301.45135355  .00000098  00000+0  22514-3 0  9995
2 48772  87.8971 305.4199 0001790  97.6552 262.4782 13.15548788213953
ONEWEB-0241             
1 48773U 21045G   25301.51473466 -.00000058  00000+0 -18913-3 0  9997
2 48773  87.8961 305.4492 0002277  97.4653 262.6736 13.15549398213870
ONEWEB-0243             
1 48774U 21045H   25301.47034585  .00000206  00000+0  51294-3 0  9990
2 48774  87.8966 305.4654 0001886 103.9337 256.2003 13.15546594213896
ONEWEB-0222             
1 48775U 21045J   25301.45372094  .00000167  00000+0  40879-3 0  9992
2 48775  87.8965 305.4204 0001961  95.9268 264.2086 13.15549465213939
ONEWEB-0244             
1 48776U 21045K   25301.47986844  .00000120  00000+0  28500-3 0  9995
2 48776  87.8971 305.4004 0001875  96.3687 263.7657 13.15548595214504
ONEWEB-0247             
1 48777U 21045L   25301.47669690  .00000156  00000+0  38093-3 0  9990
2 48777  87.8960 305.4644 0002197 118.7270 241.4081 13.15549292213944
ONEWEB-0245             
1 48778U 21045M   25301.47193886  .00000176  00000+0  43384-3 0  9991
2 48778  87.8961 305.4293 0002069  92.4651 267.6716 13.15549961213910
ONEWEB-0229             
1 48779U 21045N   25301.46718761  .00000236  00000+0  59178-3 0  9991
2 48779  87.8957 305.4295 0001791  96.1250 264.0085 13.15549402213948
ONEWEB-0228             
1 48780U 21045P   25301.50060309 -.00000121  00000+0 -35506-3 0  9990
2 48780  87.8972 305.4020 0001892  95.0107 265.1240 13.15549331213861
ONEWEB-0232             
1 48781U 21045Q   25301.47511162  .00000111  00000+0  26119-3 0  9992
2 48781  87.8974 305.3981 0001862  93.1977 266.9367 13.15549666214186
ONEWEB-0231             
1 48782U 21045R   25301.45293545  .00000151  00000+0  36711-3 0  9996
2 48782  87.8957 305.4512 0001904 101.8970 258.2374 13.15549193213878
ONEWEB-0234             
1 48783U 21045S   25301.49081822 -.00000025  00000+0 -10092-3 0  9990
2 48783  87.8964 305.4151 0002458  74.9912 285.1490 13.15549675214017
ONEWEB-0238             
1 48784U 21045T   25301.49109123 -.00000012  00000+0 -66870-4 0  9998
2 48784  87.8960 305.4097 0002053  83.8282 276.3082 13.15547053213918
