[{"OBJECT_NAME":"ONEWEB-0230","OBJECT_ID":"2021-045C","EPOCH":"2025-10-28T11:51:32.864832","MEAN_MOTION":13.15548879,"ECCENTRICITY":0.00016933,"INCLINATION":87.896,"RA_OF_ASC_NODE":305.4521,"ARG_OF_PERICENTER":91.8917,"MEAN_ANOMALY":268.2408,"EPHEMERIS_TYPE":0,"CLASSIFICATION_TYPE":"U","NORAD_CAT_ID":48769,"ELEMENT_SET_NO":999,"REV_AT_EPOCH":21420,"BSTAR":-0.00032115893,"MEAN_MOTION_DOT":-1.08e-6,"MEAN_MOTION_DDOT":0},{"OBJECT_NAME":"ONEWEB-0237","OBJECT_ID":"2021-045D","EPOCH":"2025-10-28T11:35:34.564416","MEAN_MOTION":13.15549293,"ECCENTRICITY":0.00019193,"INCLINATION":87.8964,"RA_OF_ASC_NODE":305.4528,"ARG_OF_PERICENTER":100.6154,"MEAN_ANOMALY":259.5193,"EPHEMERIS_TYPE":0,"CLASSIFICATION_TYPE":"U","NORAD_CAT_ID":48770,"ELEMENT_SET_NO":999,"REV_AT_EPOCH":21392,"BSTAR":6.5910772e-5,"MEAN_MOTION_DOT":3.8e-7,"MEAN_MOTION_DDOT":0},{"OBJECT_NAME":"ONEWEB-0235","OBJECT_ID":"2021-045E","EPOCH":"2025-10-28T10:59:03.930432","MEAN_MOTION":13.15549488,"ECCENTRICITY":0.00020902,"INCLINATION":87.8958,"RA_OF_ASC_NODE":305.4288,"ARG_OF_PERICENTER":104.2002,"MEAN_ANOMALY":255.9361,"EPHEMERIS_TYPE":0,"CLASSIFICATION_TYPE":"U","NORAD_CAT_ID":48771,"ELEMENT_SET_NO":999,"REV_AT_EPOCH":21391,"BSTAR":0.00041447416,"MEAN_MOTION_DOT":1.69e-6,"MEAN_MOTION_DDOT":0},{"OBJECT_NAME":"ONEWEB-0242","OBJECT_ID":"2021-045F","EPOCH":"2025-10-28T10:49:56.946720","MEAN_MOTION":13.15548788,"ECCENTRICITY":0.00017906,"INCLINATION":87.8971,"RA_OF_ASC_NODE":305.4199,"ARG_OF_PERICENTER":97.6552,"MEAN_ANOMALY":262.4782,"EPHEMERIS_TYPE":0,"CLASSIFICATION_TYPE":"U","NORAD_CAT_ID":48772,"ELEMENT_SET_NO":999,"REV_AT_EPOCH":21395,"BSTAR":0.00022514222,"MEAN_MOTION_DOT":9.8e-7,"MEAN_MOTION_DDOT":0},{"OBJECT_NAME":"ONEWEB-0241","OBJECT_ID":"2021-045G","EPOCH":"2025-10-28T12:21:13.074624","MEAN_MOTION":13.15549398,"ECCENTRICITY":0.0002277,"INCLINATION":87.8961,"RA_OF_ASC_NODE":305.4492,"ARG_OF_PERICENTER":97.4653,"MEAN_ANOMALY":262.6736,"EPHEMERIS_TYPE":0,"CLASSIFICATION_TYPE":"U","NORAD_CAT_ID":48773,"ELEMENT_SET_NO":999,"REV_AT_EPOCH":21387,"BSTAR":-0.00018913063,"MEAN_MOTION_DOT":-5.8e-7,"MEAN_MOTION_DDOT":0},{"OBJECT_NAME":"ONEWEB-0243","OBJECT_ID":"2021-045H","EPOCH":"2025-10-28T11:17:17.881440","MEAN_MOTION":13.15546594,"ECCENTRICITY":0.0001886,"INCLINATION":87.8966,"RA_OF_ASC_NODE":305.4654,"ARG_OF_PERICENTER":103.9337,"MEAN_ANOMALY":256.2003,"EPHEMERIS_TYPE":0,"CLASSIFICATION_TYPE":"U","NORAD_CAT_ID":48774,"ELEMENT_SET_NO":999,"REV_AT_EPOCH":21389,"BSTAR":0.00051294285,"MEAN_MOTION_DOT":2.06e-6,"MEAN_MOTION_DDOT":0},{"OBJECT_NAME":"ONEWEB-0222","OBJECT_ID":"2021-045J","EPOCH":"2025-10-28T10:53:21.489216","MEAN_MOTION":13.15549465,"ECCENTRICITY":0.00019618,"INCLINATION":87.8965,"RA_OF_ASC_NODE":305.4204,"ARG_OF_PERICENTER":95.9268,"MEAN_ANOMALY":264.2086,"EPHEMERIS_TYPE":0,"CLASSIFICATION_TYPE":"U","NORAD_CAT_ID":48775,"ELEMENT_SET_NO":999,"REV_AT_EPOCH":21393,"BSTAR":0.00040879374,"MEAN_MOTION_DOT":1.67e-6,"MEAN_MOTION_DDOT":0},{"OBJECT_NAME":"ONEWEB-0244","OBJECT_ID":"2021-045K","EPOCH":"2025-10-28T11:31:00.633216","MEAN_MOTION":13.15548595,"ECCENTRICITY":0.00018756,"INCLINATION":87.8971,"RA_OF_ASC_NODE":305.4004,"ARG_OF_PERICENTER":96.3687,"MEAN_ANOMALY":263.7657,"EPHEMERIS_TYPE":0,"CLASSIFICATION_TYPE":"U","NORAD_CAT_ID":48776,"ELEMENT_SET_NO":999,"REV_AT_EPOCH":21450,"BSTAR":0.00028499799,"MEAN_MOTION_DOT":1.2e-6,"MEAN_MOTION_DDOT":0},{"OBJECT_NAME":"ONEWEB-0247","OBJECT_ID":"2021-045L","EPOCH":"2025-10-28T11:26:26.612160","MEAN_MOTION":13.15549292,"ECCENTRICITY":0.00021976,"INCLINATION":87.896,"RA_OF_ASC_NODE":305.4644,"ARG_OF_PERICENTER":118.727,"MEAN_ANOMALY":241.4081,"EPHEMERIS_TYPE":0,"CLASSIFICATION_TYPE":"U","NORAD_CAT_ID":48777,"ELEMENT_SET_NO":999,"REV_AT_EPOCH":21394,"BSTAR":0.00038092884,"MEAN_MOTION_DOT":1.56e-6,"MEAN_MOTION_DDOT":0},{"OBJECT_NAME":"ONEWEB-0245","OBJECT_ID":"2021-045M","EPOCH":"2025-10-28T11:19:35.517504","MEAN_MOTION":13.15549961,"ECCENTRICITY":0.00020696,"INCLINATION":87.8961,"RA_OF_ASC_NODE":305.4293,"ARG_OF_PERICENTER":92.4651,"MEAN_ANOMALY":267.6716,"EPHEMERIS_TYPE":0,"CLASSIFICATION_TYPE":"U","NORAD_CAT_ID":48778,"ELEMENT_SET_NO":999,"REV_AT_EPOCH":21391,"BSTAR":0.00043383745,"MEAN_MOTION_DOT":1.76e-6,"MEAN_MOTION_DDOT":0},{"OBJECT_NAME":"ONEWEB-0229","OBJECT_ID":"2021-045N","EPOCH":"2025-10-28T11:12:45.009504","MEAN_MOTION":13.15549402,"ECCENTRICITY":0.00017916,"INCLINATION":87.8957,"RA_OF_ASC_NODE":305.4295,"ARG_OF_PERICENTER":96.125,"MEAN_ANOMALY":264.0085,"EPHEMERIS_TYPE":0,"CLASSIFICATION_TYPE":"U","NORAD_CAT_ID":48779,"ELEMENT_SET_NO":999,"REV_AT_EPOCH":21394,"BSTAR":0.00059178066,"MEAN_MOTION_DOT":2.36e-6,"MEAN_MOTION_DDOT":0},{"OBJECT_NAME":"ONEWEB-0228","OBJECT_ID":"2021-045P","EPOCH":"2025-10-28T12:00:52.106976","MEAN_MOTION":13.15549331,"ECCENTRICITY":0.00018922,"INCLINATION":87.8972,"RA_OF_ASC_NODE":305.402,"ARG_OF_PERICENTER":95.0107,"MEAN_ANOMALY":265.124,"EPHEMERIS_TYPE":0,"CLASSIFICATION_TYPE":"U","NORAD_CAT_ID":48780,"ELEMENT_SET_NO":999,"REV_AT_EPOCH":21386,"BSTAR":-0.00035506364,"MEAN_MOTION_DOT":-1.21e-6,"MEAN_MOTION_DDOT":0},{"OBJECT_NAME":"ONEWEB-0232","OBJECT_ID":"2021-045Q","EPOCH":"2025-10-28T11:24:09.643968","MEAN_MOTION":13.15549666,"ECCENTRICITY":0.00018627,"INCLINATION":87.8974,"RA_OF_ASC_NODE":305.3981,"ARG_OF_PERICENTER":93.1977,"MEAN_ANOMALY":266.9367,"EPHEMERIS_TYPE":0,"CLASSIFICATION_TYPE":"U","NORAD_CAT_ID":48781,"ELEMENT_SET_NO":999,"REV_AT_EPOCH":21418,"BSTAR":0.00026118569,"MEAN_MOTION_DOT":1.11e-6,"MEAN_MOTION_DDOT":0},{"OBJECT_NAME":"ONEWEB-0231","OBJECT_ID":"2021-045R","EPOCH":"2025-10-28T10:52:13.622880","MEAN_MOTION":13.15549193,"ECCENTRICITY":0.00019041,"INCLINATION":87.8957,"RA_OF_ASC_NODE":305.4512,"ARG_OF_PERICENTER":101.897,"MEAN_ANOMALY":258.2374,"EPHEMERIS_TYPE":0,"CLASSIFICATION_TYPE":"U","NORAD_CAT_ID":48782,"ELEMENT_SET_NO":999,"REV_AT_EPOCH":21387,"BSTAR":0.00036710904,"MEAN_MOTION_DOT":1.51e-6,"MEAN_MOTION_DDOT":0},{"OBJECT_NAME":"ONEWEB-0234","OBJECT_ID":"2021-045S","EPOCH":"2025-10-28T11:46:46.694208","MEAN_MOTION":13.15549675,"ECCENTRICITY":0.00024581,"INCLINATION":87.8964,"RA_OF_ASC_NODE":305.4151,"ARG_OF_PERICENTER":74.9912,"MEAN_ANOMALY":285.149,"EPHEMERIS_TYPE":0,"CLASSIFICATION_TYPE":"U","NORAD_CAT_ID":48783,"ELEMENT_SET_NO":999,"REV_AT_EPOCH":21401,"BSTAR":-0.00010092004,"MEAN_MOTION_DOT":-2.5e-7,"MEAN_MOTION_DDOT":0},{"OBJECT_NAME":"ONEWEB-0238","OBJECT_ID":"2021-045T","EPOCH":"2025-10-28T11:47:10.282272","MEAN_MOTION":13.15547053,"ECCENTRICITY":0.00020531,"INCLINATION":87.896,"RA_OF_ASC_NODE":305.4097,"ARG_OF_PERICENTER":83.8282,"MEAN_ANOMALY":276.3082,"EPHEMERIS_TYPE":0,"CLASSIFICATION_TYPE":"U","NORAD_CAT_ID":48784,"ELEMENT_SET_NO":999,"REV_AT_EPOCH":21391,"BSTAR":-6.6870224e-5,"MEAN_MOTION_DOT":-1.2e-7,"MEAN_MOTION_DDOT":0}]
